ONEWEB-0311             
1 49097U 21075Y   25135.41807121  .00000024  00000+0  29088-4 0  9990
2 49097  87.9053  85.0620 0002443  78.3723 281.7682 13.17650026181248
ONEWEB-0312             
1 49098U 21075Z   25135.58511595  .00000004  00000+0 -24019-4 0  9994
2 49098  87.9052  85.0595 0002416  86.8655 273.2753 13.17650502181241
ONEWEB-0313             
1 49099U 21075AA  25135.36223074  .00000054  00000+0  10532-3 0  9991
2 49099  87.9054  85.1197 0002099  78.2046 281.9321 13.17646498181201
ONEWEB-0314             
1 49100U 21075AB  25135.32862227  .00000013  00000+0 -59235-6 0  9991
2 49100  87.9049  85.0591 0002445  85.2766 274.8644 13.17650754181172
ONEWEB-0315             
1 49101U 21075AC  25135.55634706  .00000145  00000+0  36837-3 0  9991
2 49101  87.8877  69.7454 0002266  72.3503 287.7873 13.12443636183011
ONEWEB-0316             
1 49102U 21075AD  25135.26314338  .00000056  00000+0  10881-3 0  9998
2 49102  87.9161  54.5524 0002096  75.5686 284.5679 13.18684214184764
ONEWEB-0317             
1 49103U 21075AE  25135.32114121 -.00000005  00000+0 -49097-4 0  9992
2 49103  87.8876  69.8068 0001672 105.5234 254.6079 13.12447306183002
ONEWEB-0318             
1 49104U 21075AF  25135.33585939  .00000108  00000+0  24200-3 0  9993
2 49104  87.9160  54.5235 0002213  74.9325 285.2051 13.18689339184730
